[{"name": "Martin Luther King Jr Swim Center", "address": "1201 Jackson Rd", "city": "Silver Spring", "zip": "20904", "phone": "240-777-8066"}, {"name": "Kennedy-Shriver Aquatic Center (KSAC)", "address": "5900 Executive Blv", "city": "N. Bethesda", "zip": "20852", "phone": "240-777-8070"}, {"name": "Olney Swim Center", "address": "16601 Georgia Ave", "city": "Olney", "zip": "20832", "phone": "240-777-4995"}, {"name": "Germantown Outdoor Pool", "address": "18905 Kingsview Rd", "city": "Germantown", "zip": "20874", "phone": "240-777-8067"}, {"name": "Wheaton / Glenmont Outdoor Pool", "address": "12621 Dalewood Dr", "city": "Wheaton", "zip": "20906", "phone": "301-929-5460"}, {"name": "Long Branch Outdoor Pool", "address": "8700 Piney Branch Rd", "city": "Silver Spring", "zip": "20901", "phone": "301-431-5700"}, {"name": "Western County Outdoor Pool", "address": "20151 Fisher Ave", "city": "Poolesville", "zip": "20837", "phone": "301-349-2217"}, {"name": "Upper County Outdoor Pool", "address": "8211 Emory Grove Rd", "city": "Gaithersburg", "zip": "20877", "phone": "301-840-2446"}, {"name": "Bethesda Outdoor Pool", "address": "6300 Hillandale Rd", "city": "Bethesda", "zip": "20815", "phone": "301-652-1598"}, {"name": "Water Park at Bohrer Park", "address": "510 S Frederick Ave", "city": "Gaithersburg", "zip": "20877", "phone": "301-258-6445"}, {"name": "Gaithersburg Aquatic Center", "address": "2 Teachers Way", "city": "Gaithersburg", "zip": "20884", "phone": "301-258-6345"}, {"name": "Rockville Municipal Swim Center", "address": "355 Martins La", "city": "Rockville", "zip": "20850", "phone": "240-314-8750"}, {"name": "Germantown Indoor Swim Center", "address": "18000 Central Park Cir", "city": "Boyds", "zip": "20841", "phone": "240-777-6830"}, {"name": "Good Hope Sprayground", "address": "14715 Good Hope Rd", "city": "Silver Spring", "zip": "20905", "phone": "240-777-8060"}]